[{"OBJECT_NAME":"TRANSPORTER-10 OBJECT AG","OBJECT_ID":"2024-043AG","EPOCH":"2026-03-09T22:12:45.387648","MEAN_MOTION":15.30759727,"ECCENTRICITY":0.00093005,"INCLINATION":97.5471,"RA_OF_ASC_NODE":205.7101,"ARG_OF_PERICENTER":226.5958,"MEAN_ANOMALY":133.4509,"EPHEMERIS_TYPE":0,"CLASSIFICATION_TYPE":"U","NORAD_CAT_ID":59128,"ELEMENT_SET_NO":999,"REV_AT_EPOCH":11192,"BSTAR":0.00032170115,"MEAN_MOTION_DOT":9.498e-5,"MEAN_MOTION_DDOT":0},{"OBJECT_NAME":"STARLINK-35237","OBJECT_ID":"2025-210Z","EPOCH":"2026-03-09T22:23:04.829856","MEAN_MOTION":15.30197139,"ECCENTRICITY":0.00012135,"INCLINATION":53.1592,"RA_OF_ASC_NODE":306.2754,"ARG_OF_PERICENTER":94.9143,"MEAN_ANOMALY":265.1996,"EPHEMERIS_TYPE":0,"CLASSIFICATION_TYPE":"U","NORAD_CAT_ID":65645,"ELEMENT_SET_NO":999,"REV_AT_EPOCH":2776,"BSTAR":0.0005664326,"MEAN_MOTION_DOT":0.00016453,"MEAN_MOTION_DDOT":0}]
